{
  "type": "FeatureCollection",
  "features": [
    {
      "type": "Feature",
      "properties": {
        "norad_id": 41890,
        "name": "CYGFM07",
        "group": "weather",
        "lat": -31.558546887742974,
        "lon": -136.26303215227327,
        "alt_km": 412.5606261776811,
        "timestamp": "2025-12-27T09:28:56.109676+00:00",
        "meta_object_name": "CYGFM07",
        "meta_object_id": "2016-078G",
        "meta_epoch": "2025-12-27T03:35:06.057024",
        "meta_mean_motion": 15.50632394,
        "meta_eccentricity": 0.0008969,
        "meta_inclination": 34.9473,
        "meta_ra_of_asc_node": 286.9349,
        "meta_arg_of_pericenter": 338.1364,
        "meta_mean_anomaly": 21.8975,
        "meta_ephemeris_type": 0,
        "meta_classification_type": "U",
        "meta_norad_cat_id": 41890,
        "meta_element_set_no": 999,
        "meta_rev_at_epoch": 50219,
        "meta_bstar": 0.00044686,
        "meta_mean_motion_dot": 0.00026503,
        "meta_mean_motion_ddot": 0,
        "tle_line1": "1 41890U 16078G   25361.14937566  .00026503  00000+0  44686-3 0  9998",
        "tle_line2": "2 41890  34.9473 286.9349 0008969 338.1364  21.8975 15.50632394502192"
      },
      "geometry": {
        "type": "Point",
        "coordinates": [
          -136.26303215227327,
          -31.558546887742974
        ]
      }
    },
    {
      "type": "Feature",
      "properties": {
        "norad_id": 41891,
        "name": "CYGFM03",
        "group": "weather",
        "lat": 28.57107506238865,
        "lon": 55.996372207806004,
        "alt_km": 415.2439189314018,
        "timestamp": "2025-12-27T09:28:56.109687+00:00",
        "meta_object_name": "CYGFM03",
        "meta_object_id": "2016-078H",
        "meta_epoch": "2025-12-27T04:19:02.954784",
        "meta_mean_motion": 15.50526979,
        "meta_eccentricity": 0.0008857,
        "meta_inclination": 34.9429,
        "meta_ra_of_asc_node": 288.6623,
        "meta_arg_of_pericenter": 324.6676,
        "meta_mean_anomaly": 35.3458,
        "meta_ephemeris_type": 0,
        "meta_classification_type": "U",
        "meta_norad_cat_id": 41891,
        "meta_element_set_no": 999,
        "meta_rev_at_epoch": 50217,
        "meta_bstar": 0.00045233,
        "meta_mean_motion_dot": 0.00026727,
        "meta_mean_motion_ddot": 0,
        "tle_line1": "1 41891U 16078H   25361.17989531  .00026727  00000+0  45233-3 0  9998",
        "tle_line2": "2 41891  34.9429 288.6623 0008857 324.6676  35.3458 15.50526979502175"
      },
      "geometry": {
        "type": "Point",
        "coordinates": [
          55.996372207806004,
          28.57107506238865
        ]
      }
    },
    {
      "type": "Feature",
      "properties": {
        "norad_id": 43010,
        "name": "FENGYUN 3D",
        "group": "weather",
        "lat": -12.60652035201493,
        "lon": -30.044461980299904,
        "alt_km": 831.8679853238427,
        "timestamp": "2025-12-27T09:28:56.109697+00:00",
        "meta_object_name": "FENGYUN 3D",
        "meta_object_id": "2017-072A",
        "meta_epoch": "2025-12-27T04:28:04.388160",
        "meta_mean_motion": 14.19689225,
        "meta_eccentricity": 0.0001636,
        "meta_inclination": 98.9917,
        "meta_ra_of_asc_node": 327.7141,
        "meta_arg_of_pericenter": 143.3908,
        "meta_mean_anomaly": 216.7379,
        "meta_ephemeris_type": 0,
        "meta_classification_type": "U",
        "meta_norad_cat_id": 43010,
        "meta_element_set_no": 999,
        "meta_rev_at_epoch": 42058,
        "meta_bstar": 0.00026496,
        "meta_mean_motion_dot": 5.14e-06,
        "meta_mean_motion_ddot": 0,
        "tle_line1": "1 43010U 17072A   25361.18616190  .00000514  00000+0  26496-3 0  9993",
        "tle_line2": "2 43010  98.9917 327.7141 0001636 143.3908 216.7379 14.19689225420583"
      },
      "geometry": {
        "type": "Point",
        "coordinates": [
          -30.044461980299904,
          -12.60652035201493
        ]
      }
    },
    {
      "type": "Feature",
      "properties": {
        "norad_id": 43013,
        "name": "NOAA 20 (JPSS-1)",
        "group": "weather",
        "lat": 48.0961017219216,
        "lon": 127.42866068668721,
        "alt_km": 821.9722693894346,
        "timestamp": "2025-12-27T09:28:56.109708+00:00",
        "meta_object_name": "NOAA 20 (JPSS-1)",
        "meta_object_id": "2017-073A",
        "meta_epoch": "2025-12-27T03:47:31.701120",
        "meta_mean_motion": 14.19529711,
        "meta_eccentricity": 0.0002051,
        "meta_inclination": 98.7617,
        "meta_ra_of_asc_node": 297.2982,
        "meta_arg_of_pericenter": 66.77,
        "meta_mean_anomaly": 293.3692,
        "meta_ephemeris_type": 0,
        "meta_classification_type": "U",
        "meta_norad_cat_id": 43013,
        "meta_element_set_no": 999,
        "meta_rev_at_epoch": 42006,
        "meta_bstar": 8.0447e-05,
        "meta_mean_motion_dot": 1.26e-06,
        "meta_mean_motion_ddot": 0,
        "tle_line1": "1 43013U 17073A   25361.15800580  .00000126  00000+0  80447-4 0  9998",
        "tle_line2": "2 43013  98.7617 297.2982 0002051  66.7700 293.3692 14.19529711420060"
      },
      "geometry": {
        "type": "Point",
        "coordinates": [
          127.42866068668721,
          48.0961017219216
        ]
      }
    },
    {
      "type": "Feature",
      "properties": {
        "norad_id": 43226,
        "name": "GOES 17",
        "group": "weather",
        "lat": 0.4382535576221964,
        "lon": 148.8253300916745,
        "alt_km": 35795.13565699491,
        "timestamp": "2025-12-27T09:28:56.109721+00:00",
        "meta_object_name": "GOES 17",
        "meta_object_id": "2018-022A",
        "meta_epoch": "2025-12-27T00:49:20.578080",
        "meta_mean_motion": 1.00271355,
        "meta_eccentricity": 0.0003213,
        "meta_inclination": 0.4926,
        "meta_ra_of_asc_node": 89.0032,
        "meta_arg_of_pericenter": 191.1292,
        "meta_mean_anomaly": 98.4754,
        "meta_ephemeris_type": 0,
        "meta_classification_type": "U",
        "meta_norad_cat_id": 43226,
        "meta_element_set_no": 999,
        "meta_rev_at_epoch": 2869,
        "meta_bstar": 0,
        "meta_mean_motion_dot": -1.6e-06,
        "meta_mean_motion_ddot": 0,
        "tle_line1": "1 43226U 18022A   25361.03426595 -.00000160  00000+0  00000+0 0  9997",
        "tle_line2": "2 43226   0.4926  89.0032 0003213 191.1292  98.4754  1.00271355 28692"
      },
      "geometry": {
        "type": "Point",
        "coordinates": [
          148.8253300916745,
          0.4382535576221964
        ]
      }
    },
    {
      "type": "Feature",
      "properties": {
        "norad_id": 43491,
        "name": "FENGYUN 2H",
        "group": "weather",
        "lat": -2.1724751049421243,
        "lon": -42.321598128686574,
        "alt_km": 35783.125923989224,
        "timestamp": "2025-12-27T09:28:56.109734+00:00",
        "meta_object_name": "FENGYUN 2H",
        "meta_object_id": "2018-050A",
        "meta_epoch": "2025-12-27T03:06:20.069280",
        "meta_mean_motion": 1.00270024,
        "meta_eccentricity": 0.0002499,
        "meta_inclination": 2.5857,
        "meta_ra_of_asc_node": 81.1774,
        "meta_arg_of_pericenter": 167.0859,
        "meta_mean_anomaly": 333.5093,
        "meta_ephemeris_type": 0,
        "meta_classification_type": "U",
        "meta_norad_cat_id": 43491,
        "meta_element_set_no": 999,
        "meta_rev_at_epoch": 2771,
        "meta_bstar": 0,
        "meta_mean_motion_dot": -1.08e-06,
        "meta_mean_motion_ddot": 0,
        "tle_line1": "1 43491U 18050A   25361.12939895 -.00000108  00000+0  00000+0 0  9996",
        "tle_line2": "2 43491   2.5857  81.1774 0002499 167.0859 333.5093  1.00270024 27717"
      },
      "geometry": {
        "type": "Point",
        "coordinates": [
          -42.321598128686574,
          -2.1724751049421243
        ]
      }
    },
    {
      "type": "Feature",
      "properties": {
        "norad_id": 43689,
        "name": "METOP-C",
        "group": "weather",
        "lat": 14.934126431121863,
        "lon": 56.600467739002276,
        "alt_km": 820.7325442345109,
        "timestamp": "2025-12-27T09:28:56.109753+00:00",
        "meta_object_name": "METOP-C",
        "meta_object_id": "2018-087A",
        "meta_epoch": "2025-12-27T04:20:36.279744",
        "meta_mean_motion": 14.21489962,
        "meta_eccentricity": 5.18e-05,
        "meta_inclination": 98.6909,
        "meta_ra_of_asc_node": 58.7278,
        "meta_arg_of_pericenter": 11.2632,
        "meta_mean_anomaly": 348.8557,
        "meta_ephemeris_type": 0,
        "meta_classification_type": "U",
        "meta_norad_cat_id": 43689,
        "meta_element_set_no": 999,
        "meta_rev_at_epoch": 37039,
        "meta_bstar": 9.2729e-05,
        "meta_mean_motion_dot": 1.59e-06,
        "meta_mean_motion_ddot": 0,
        "tle_line1": "1 43689U 18087A   25361.18097546  .00000159  00000+0  92729-4 0  9998",
        "tle_line2": "2 43689  98.6909  58.7278 0000518  11.2632 348.8557 14.21489962370397"
      },
      "geometry": {
        "type": "Point",
        "coordinates": [
          56.600467739002276,
          14.934126431121863
        ]
      }
    }
  ]
}